ONEWEB-0340             
1 49206U 21083W   24186.88150682  .00000054  00000+0  10497-3 0  9996
2 49206  87.9154 117.2533 0001985  83.1419 276.9939 13.18686365137382
ONEWEB-0341             
1 49207U 21083X   24186.51002522  .00000078  00000+0  16550-3 0  9998
2 49207  87.9152 117.3410 0001399  64.9330 295.1947 13.18687687136068
ONEWEB-0342             
1 49208U 21083Y   24186.63097709 -.00000009  00000+0 -53477-4 0  9999
2 49208  87.9190  56.2385 0001905  75.7895 284.3449 13.20769600144023
ONEWEB-0343             
1 49209U 21083Z   24186.50527044  .00000031  00000+0  45754-4 0  9998
2 49209  87.9146 117.3480 0001607  64.0383 296.0914 13.18687952136116
ONEWEB-0344             
1 49210U 21083AA  24186.52765594  .00000378  00000+0  99890-3 0  9999
2 49210  87.8936 102.1044 0001463  81.1873 278.9421 13.13469346137344
ONEWEB-0345             
1 49211U 21083AB  24186.84983838 -.00001769  00000+0 -48802-2 0  9991
2 49211  87.8935 102.0158 0001610  81.2672 278.8639 13.13452796138691
ONEWEB-0346             
1 49212U 21083AC  24186.51477015  .00000115  00000+0  26019-3 0  9990
2 49212  87.9153 117.3488 0001992  91.9694 268.1667 13.18686854136055
ONEWEB-0348             
1 49213U 21083AD  24186.69726463 -.00000037  00000+0 -12268-3 0  9990
2 49213  87.9200  56.1990 0001415 102.2501 257.8790 13.20770018144061
